KUIPER-00221            
1 67147U 25301Q   26007.99434545  .00025333  00000+0  71461-3 0  9991
2 67147  51.8720 358.4633 0004898 150.8168 209.3093 15.36232094  4409
KUIPER-00232            
1 67148U 25301R   26007.98014078  .00027392  00000+0  75070-3 0  9993
2 67148  51.8742 358.3695 0002244  81.9311 278.1930 15.37096049  4401
KUIPER-00241            
1 67149U 25301S   26007.98678434  .00031393  00000+0  86919-3 0  9996
2 67149  51.8740 358.4114 0002569 122.4283 237.6952 15.36705521  4737
KUIPER-00245            
1 67150U 25301T   26007.91668981 -.01183073  00000+0 -41853-1 0  9999
2 67150  51.8749 358.9122 0007816 163.4128  79.6694 15.31687682  3878
KUIPER-00246            
1 67151U 25301U   26007.99100625  .00031607  00000+0  88223-3 0  9990
2 67151  51.8735 358.4407 0003910 148.9635 211.1583 15.36446106  4428
KUIPER-00247            
1 67152U 25301V   26007.95497607  .00018311  00000+0  55007-3 0  9997
2 67152  51.8650 358.9320 0011215 192.4692 167.6018 15.34417435  4393
KUIPER-00248            
1 67153U 25301W   26007.87916985  .00021482  00000+0  62819-3 0  9996
2 67153  51.8690 359.1836 0008762 177.2169 182.8867 15.35180653  4555
KUIPER-00249            
1 67154U 25301X   26007.94168423  .00018577  00000+0  53908-3 0  9991
2 67154  51.8663 358.8504 0008468 176.1412 183.9640 15.35523290  4397
KUIPER-00250            
1 67155U 25301Y   26007.93411902  .00018608  00000+0  53143-3 0  9990
2 67155  51.8719 358.8076 0006619 165.2709 194.8472 15.36035516  4426
KUIPER-00251            
1 67156U 25301Z   26007.87860319  .00014186  00000+0  41961-3 0  9996
2 67156  51.8677 359.1783 0008994 173.7470 186.3630 15.35132303  4575
KUIPER-00252            
1 67157U 25301AA  26007.88555421  .00014122  00000+0  42207-3 0  9997
2 67157  51.8673 359.2216 0009808 186.3152 173.7711 15.34801527  4385
KUIPER-00261            
1 67158U 25301AB  26007.91668981  .00055513  00000+0  15591-2 0  9992
2 67158  51.8699 358.8809 0006691 159.3730 108.9576 15.35979498  3850
