CCSDS_OMM_VERS = 2.0
CREATION_DATE  = 
ORIGINATOR     = 

OBJECT_NAME    = KUIPER-00221
OBJECT_ID      = 2025-301Q
CENTER_NAME    = EARTH
REF_FRAME      = TEME
TIME_SYSTEM    = UTC
MEAN_ELEMENT_THEORY = SGP/SGP4

EPOCH          = 2026-01-07T23:51:51.446880
MEAN_MOTION    = 15.36232094
ECCENTRICITY   = .00048983
INCLINATION    = 51.8720
RA_OF_ASC_NODE = 358.4633
ARG_OF_PERICENTER = 150.8168
MEAN_ANOMALY   = 209.3093

EPHEMERIS_TYPE = 0
CLASSIFICATION_TYPE = U
NORAD_CAT_ID   = 67147
ELEMENT_SET_NO = 999
REV_AT_EPOCH   = 440
BSTAR          = .714609E-3
MEAN_MOTION_DOT = .25333E-3
MEAN_MOTION_DDOT = 0

CCSDS_OMM_VERS = 2.0
CREATION_DATE  = 
ORIGINATOR     = 

OBJECT_NAME    = KUIPER-00232
OBJECT_ID      = 2025-301R
CENTER_NAME    = EARTH
REF_FRAME      = TEME
TIME_SYSTEM    = UTC
MEAN_ELEMENT_THEORY = SGP/SGP4

EPOCH          = 2026-01-07T23:31:24.163392
MEAN_MOTION    = 15.37096049
ECCENTRICITY   = .00022441
INCLINATION    = 51.8742
RA_OF_ASC_NODE = 358.3695
ARG_OF_PERICENTER = 81.9311
MEAN_ANOMALY   = 278.1930

EPHEMERIS_TYPE = 0
CLASSIFICATION_TYPE = U
NORAD_CAT_ID   = 67148
ELEMENT_SET_NO = 999
REV_AT_EPOCH   = 440
BSTAR          = .75070012E-3
MEAN_MOTION_DOT = .27392E-3
MEAN_MOTION_DDOT = 0

CCSDS_OMM_VERS = 2.0
CREATION_DATE  = 
ORIGINATOR     = 

OBJECT_NAME    = KUIPER-00241
OBJECT_ID      = 2025-301S
CENTER_NAME    = EARTH
REF_FRAME      = TEME
TIME_SYSTEM    = UTC
MEAN_ELEMENT_THEORY = SGP/SGP4

EPOCH          = 2026-01-07T23:40:58.166976
MEAN_MOTION    = 15.36705521
ECCENTRICITY   = .00025698
INCLINATION    = 51.8740
RA_OF_ASC_NODE = 358.4114
ARG_OF_PERICENTER = 122.4283
MEAN_ANOMALY   = 237.6952

EPHEMERIS_TYPE = 0
CLASSIFICATION_TYPE = U
NORAD_CAT_ID   = 67149
ELEMENT_SET_NO = 999
REV_AT_EPOCH   = 473
BSTAR          = .86919146E-3
MEAN_MOTION_DOT = .31393E-3
MEAN_MOTION_DDOT = 0

CCSDS_OMM_VERS = 2.0
CREATION_DATE  = 
ORIGINATOR     = 

OBJECT_NAME    = KUIPER-00245
OBJECT_ID      = 2025-301T
CENTER_NAME    = EARTH
REF_FRAME      = TEME
TIME_SYSTEM    = UTC
MEAN_ELEMENT_THEORY = SGP/SGP4

EPOCH          = 2026-01-07T22:00:01.999584
MEAN_MOTION    = 15.31687682
ECCENTRICITY   = .00078161
INCLINATION    = 51.8749
RA_OF_ASC_NODE = 358.9122
ARG_OF_PERICENTER = 163.4128
MEAN_ANOMALY   = 79.6694

EPHEMERIS_TYPE = 0
CLASSIFICATION_TYPE = U
NORAD_CAT_ID   = 67150
ELEMENT_SET_NO = 999
REV_AT_EPOCH   = 387
BSTAR          = -.41853279E-1
MEAN_MOTION_DOT = -.1183073E-1
MEAN_MOTION_DDOT = 0

CCSDS_OMM_VERS = 2.0
CREATION_DATE  = 
ORIGINATOR     = 

OBJECT_NAME    = KUIPER-00246
OBJECT_ID      = 2025-301U
CENTER_NAME    = EARTH
REF_FRAME      = TEME
TIME_SYSTEM    = UTC
MEAN_ELEMENT_THEORY = SGP/SGP4

EPOCH          = 2026-01-07T23:47:02.940000
MEAN_MOTION    = 15.36446106
ECCENTRICITY   = .00039106
INCLINATION    = 51.8735
RA_OF_ASC_NODE = 358.4407
ARG_OF_PERICENTER = 148.9635
MEAN_ANOMALY   = 211.1583

EPHEMERIS_TYPE = 0
CLASSIFICATION_TYPE = U
NORAD_CAT_ID   = 67151
ELEMENT_SET_NO = 999
REV_AT_EPOCH   = 442
BSTAR          = .88223378E-3
MEAN_MOTION_DOT = .31607E-3
MEAN_MOTION_DDOT = 0

CCSDS_OMM_VERS = 2.0
CREATION_DATE  = 
ORIGINATOR     = 

OBJECT_NAME    = KUIPER-00247
OBJECT_ID      = 2025-301V
CENTER_NAME    = EARTH
REF_FRAME      = TEME
TIME_SYSTEM    = UTC
MEAN_ELEMENT_THEORY = SGP/SGP4

EPOCH          = 2026-01-07T22:55:09.932448
MEAN_MOTION    = 15.34417435
ECCENTRICITY   = .00112152
INCLINATION    = 51.8650
RA_OF_ASC_NODE = 358.9320
ARG_OF_PERICENTER = 192.4692
MEAN_ANOMALY   = 167.6018

EPHEMERIS_TYPE = 0
CLASSIFICATION_TYPE = U
NORAD_CAT_ID   = 67152
ELEMENT_SET_NO = 999
REV_AT_EPOCH   = 439
BSTAR          = .55006708E-3
MEAN_MOTION_DOT = .18311E-3
MEAN_MOTION_DDOT = 0

CCSDS_OMM_VERS = 2.0
CREATION_DATE  = 
ORIGINATOR     = 

OBJECT_NAME    = KUIPER-00248
OBJECT_ID      = 2025-301W
CENTER_NAME    = EARTH
REF_FRAME      = TEME
TIME_SYSTEM    = UTC
MEAN_ELEMENT_THEORY = SGP/SGP4

EPOCH          = 2026-01-07T21:06:00.275040
MEAN_MOTION    = 15.35180653
ECCENTRICITY   = .00087629
INCLINATION    = 51.8690
RA_OF_ASC_NODE = 359.1836
ARG_OF_PERICENTER = 177.2169
MEAN_ANOMALY   = 182.8867

EPHEMERIS_TYPE = 0
CLASSIFICATION_TYPE = U
NORAD_CAT_ID   = 67153
ELEMENT_SET_NO = 999
REV_AT_EPOCH   = 455
BSTAR          = .62819429E-3
MEAN_MOTION_DOT = .21482E-3
MEAN_MOTION_DDOT = 0

CCSDS_OMM_VERS = 2.0
CREATION_DATE  = 
ORIGINATOR     = 

OBJECT_NAME    = KUIPER-00249
OBJECT_ID      = 2025-301X
CENTER_NAME    = EARTH
REF_FRAME      = TEME
TIME_SYSTEM    = UTC
MEAN_ELEMENT_THEORY = SGP/SGP4

EPOCH          = 2026-01-07T22:36:01.517472
MEAN_MOTION    = 15.35523290
ECCENTRICITY   = .00084689
INCLINATION    = 51.8663
RA_OF_ASC_NODE = 358.8504
ARG_OF_PERICENTER = 176.1412
MEAN_ANOMALY   = 183.9640

EPHEMERIS_TYPE = 0
CLASSIFICATION_TYPE = U
NORAD_CAT_ID   = 67154
ELEMENT_SET_NO = 999
REV_AT_EPOCH   = 439
BSTAR          = .53907937E-3
MEAN_MOTION_DOT = .18577E-3
MEAN_MOTION_DDOT = 0

CCSDS_OMM_VERS = 2.0
CREATION_DATE  = 
ORIGINATOR     = 

OBJECT_NAME    = KUIPER-00250
OBJECT_ID      = 2025-301Y
CENTER_NAME    = EARTH
REF_FRAME      = TEME
TIME_SYSTEM    = UTC
MEAN_ELEMENT_THEORY = SGP/SGP4

EPOCH          = 2026-01-07T22:25:07.883328
MEAN_MOTION    = 15.36035516
ECCENTRICITY   = .00066192
INCLINATION    = 51.8719
RA_OF_ASC_NODE = 358.8076
ARG_OF_PERICENTER = 165.2709
MEAN_ANOMALY   = 194.8472

EPHEMERIS_TYPE = 0
CLASSIFICATION_TYPE = U
NORAD_CAT_ID   = 67155
ELEMENT_SET_NO = 999
REV_AT_EPOCH   = 442
BSTAR          = .53142644E-3
MEAN_MOTION_DOT = .18608E-3
MEAN_MOTION_DDOT = 0

CCSDS_OMM_VERS = 2.0
CREATION_DATE  = 
ORIGINATOR     = 

OBJECT_NAME    = KUIPER-00251
OBJECT_ID      = 2025-301Z
CENTER_NAME    = EARTH
REF_FRAME      = TEME
TIME_SYSTEM    = UTC
MEAN_ELEMENT_THEORY = SGP/SGP4

EPOCH          = 2026-01-07T21:05:11.315616
MEAN_MOTION    = 15.35132303
ECCENTRICITY   = .00089942
INCLINATION    = 51.8677
RA_OF_ASC_NODE = 359.1783
ARG_OF_PERICENTER = 173.7470
MEAN_ANOMALY   = 186.3630

EPHEMERIS_TYPE = 0
CLASSIFICATION_TYPE = U
NORAD_CAT_ID   = 67156
ELEMENT_SET_NO = 999
REV_AT_EPOCH   = 457
BSTAR          = .41960787E-3
MEAN_MOTION_DOT = .14186E-3
MEAN_MOTION_DDOT = 0

CCSDS_OMM_VERS = 2.0
CREATION_DATE  = 
ORIGINATOR     = 

OBJECT_NAME    = KUIPER-00252
OBJECT_ID      = 2025-301AA
CENTER_NAME    = EARTH
REF_FRAME      = TEME
TIME_SYSTEM    = UTC
MEAN_ELEMENT_THEORY = SGP/SGP4

EPOCH          = 2026-01-07T21:15:11.883744
MEAN_MOTION    = 15.34801527
ECCENTRICITY   = .00098089
INCLINATION    = 51.8673
RA_OF_ASC_NODE = 359.2216
ARG_OF_PERICENTER = 186.3152
MEAN_ANOMALY   = 173.7711

EPHEMERIS_TYPE = 0
CLASSIFICATION_TYPE = U
NORAD_CAT_ID   = 67157
ELEMENT_SET_NO = 999
REV_AT_EPOCH   = 438
BSTAR          = .42207313E-3
MEAN_MOTION_DOT = .14122E-3
MEAN_MOTION_DDOT = 0

CCSDS_OMM_VERS = 2.0
CREATION_DATE  = 
ORIGINATOR     = 

OBJECT_NAME    = KUIPER-00261
OBJECT_ID      = 2025-301AB
CENTER_NAME    = EARTH
REF_FRAME      = TEME
TIME_SYSTEM    = UTC
MEAN_ELEMENT_THEORY = SGP/SGP4

EPOCH          = 2026-01-07T22:00:01.999584
MEAN_MOTION    = 15.35979498
ECCENTRICITY   = .00066911
INCLINATION    = 51.8699
RA_OF_ASC_NODE = 358.8809
ARG_OF_PERICENTER = 159.3730
MEAN_ANOMALY   = 108.9576

EPHEMERIS_TYPE = 0
CLASSIFICATION_TYPE = U
NORAD_CAT_ID   = 67158
ELEMENT_SET_NO = 999
REV_AT_EPOCH   = 385
BSTAR          = .15590767E-2
MEAN_MOTION_DOT = .55513E-3
MEAN_MOTION_DDOT = 0

